[{"OBJECT_ID":"2012-061B","OBJECT_NAME":"YAMAL 300K","NORAD_CAT_ID":"38978","OBJECT_TYPE":"PAYLOAD","PERIOD":"1436.087","INCLINATION":"0.011","APOGEE":"35792.959","PERIGEE":"35779.862","ECCENTRICITY":"0.0001553","MEAN_MOTION":"1.00272448","TLE_LINE1":"1 38978U 12061B   16238.71656884  .00000044  00000-0  00000+0 0  9997","TLE_LINE2":"2 38978   0.0110 165.2738 0001553  65.7468 184.3106  1.00272448 13950","LAUNCH_DATE":"2012-11-02","LAUNCH_SITE":"TYURATAM MISSILE AND SPACE COMPLEX","OWNER":"COMMONWEALTH OF INDEPENDENT STATES","ORBIT_TYPE":"Geosynchronous","OPERATIONAL_STATUS":"Operational","satInfo":{"lng":-63.555204602835445,"lat":-0.2807062297899101,"elevation":-8.842377512714219,"azimuth":18.55520460283545,"range":42699.48022518974,"height":35814.36399036633,"velocity":3.0735479510240826},"x":-232,"y":-116,"dx":1.3687595064447984,"dy":-2.751943753197243,"maxAlt":256,"minAlt":256},{"OBJECT_ID":"2012-062B","OBJECT_NAME":"EUTE 21B","NORAD_CAT_ID":"38992","OBJECT_TYPE":"PAYLOAD","PERIOD":"1436.091","INCLINATION":"0.0663","APOGEE":"35795.260","PERIGEE":"35777.712","ECCENTRICITY":"0.0002081","MEAN_MOTION":"1.00272179","TLE_LINE1":"1 38992U 12062B   16238.01311834 +.00000104 +00000-0 +00000-0 0  9998","TLE_LINE2":"2 38992 000.0663 004.5604 0002081 154.9412 200.5019 01.00272179013936","LAUNCH_DATE":"2012-11-10","LAUNCH_SITE":"FRENCH GUIANA","OWNER":"EUROPEAN TELECOMMUNICATIONS SATELLITE ORGANIZATION (EUTELSAT)","ORBIT_TYPE":"Geosynchronous","OPERATIONAL_STATUS":"Operational","satInfo":{"lng":44.237944691864236,"lat":-0.10836386385182872,"elevation":-8.685144675276458,"azimuth":270.76205530813576,"range":42626.115197912906,"height":35759.26287546301,"velocity":3.0758770206150166},"x":178,"y":-186,"dx":2.203708234404508,"dy":2.1458540173006355,"maxAlt":256,"minAlt":256},{"OBJECT_ID":"2012-065A","OBJECT_NAME":"ECHOSTAR 16","NORAD_CAT_ID":"39008","OBJECT_TYPE":"PAYLOAD","PERIOD":"1436.090","INCLINATION":"0.0153","APOGEE":"35794.601","PERIGEE":"35778.343","ECCENTRICITY":"0.0001928","MEAN_MOTION":"1.00272229","TLE_LINE1":"1 39008U 12065A   16239.24054277 -.00000310  00000-0  00000+0 0  9990","TLE_LINE2":"2 39008   0.0153 127.9517 0001928  27.4792 204.5711  1.00272229 13890","LAUNCH_DATE":"2012-11-20","LAUNCH_SITE":"TYURATAM MISSILE AND SPACE COMPLEX","OWNER":"UNITED STATES OF AMERICA","ORBIT_TYPE":"Geosynchronous","OPERATIONAL_STATUS":"Operational","satInfo":{"lng":-71.87393474152123,"lat":0.24675813770143096,"elevation":-8.331125763904229,"azimuth":26.8739347415212,"range":42622.12985011643,"height":35794.60168892151,"velocity":3.0745589829068223},"x":-246,"y":-82,"dx":0.9565223877947591,"dy":-2.9219818379005105,"maxAlt":256,"minAlt":256},{"OBJECT_ID":"2012-069A","OBJECT_NAME":"EUTE 70B","NORAD_CAT_ID":"39020","OBJECT_TYPE":"PAYLOAD","PERIOD":"1436.069","INCLINATION":"0.0624","APOGEE":"35796.378","PERIGEE":"35775.743","ECCENTRICITY":"0.0002447","MEAN_MOTION":"1.00273696","TLE_LINE1":"1 39020U 12069A   16238.87486356 -.00000072 +00000-0 +00000-0 0  9999","TLE_LINE2":"2 39020 000.0624 013.1367 0002447 133.0370 213.8355 01.00273696013581","LAUNCH_DATE":"2012-12-03","LAUNCH_SITE":"SEA LAUNCH","OWNER":"EUROPEAN TELECOMMUNICATIONS SATELLITE ORGANIZATION (EUTELSAT)","ORBIT_TYPE":"Geosynchronous","OPERATIONAL_STATUS":"Operational","satInfo":{"lng":79.7813388425342,"lat":-0.4523531326053632,"elevation":-9.014834042246797,"azimuth":235.2186611574658,"range":42693.7955360938,"height":35789.609356964545,"velocity":3.0744994360608344},"x":252,"y":-47,"dx":0.5454324397472886,"dy":3.0257313555584724,"maxAlt":256,"minAlt":256},{"OBJECT_ID":"2012-070A","OBJECT_NAME":"YAMAL 402","NORAD_CAT_ID":"39022","OBJECT_TYPE":"PAYLOAD","PERIOD":"1436.070","INCLINATION":"0.0439","APOGEE":"35797.336","PERIGEE":"35774.829","ECCENTRICITY":"0.0002669","MEAN_MOTION":"1.00273618","TLE_LINE1":"1 39022U 12070A   16238.94191339  .00000058  00000-0  10000-3 0  9992","TLE_LINE2":"2 39022   0.0439 273.2122 0002669 216.4198 238.9634  1.00273618 13688","LAUNCH_DATE":"2012-12-08","LAUNCH_SITE":"TYURATAM MISSILE AND SPACE COMPLEX","OWNER":"COMMONWEALTH OF INDEPENDENT STATES","ORBIT_TYPE":"Geosynchronous","OPERATIONAL_STATUS":"Operational","satInfo":{"lng":95.13916483555012,"lat":1.1180936260249368,"elevation":-7.478910623381895,"azimuth":219.86083516444987,"range":42524.68495399791,"height":35792.80480386731,"velocity":3.0741877036688474},"x":255,"y":22,"dx":-0.27537074852464877,"dy":3.0618296798231146,"maxAlt":256,"minAlt":256},{"OBJECT_ID":"2013-006A","OBJECT_NAME":"AMAZONAS 3","NORAD_CAT_ID":"39078","OBJECT_TYPE":"PAYLOAD","PERIOD":"1436.102","INCLINATION":"0.0493","APOGEE":"35804.386","PERIGEE":"35769.035","ECCENTRICITY":"0.0004192","MEAN_MOTION":"1.00271379","TLE_LINE1":"1 39078U 13006A   16239.23904633 -.00000311  00000-0  00000+0 0  9993","TLE_LINE2":"2 39078   0.0493 241.5831 0004192 311.7816 166.6169  1.00271379 13056","LAUNCH_DATE":"2013-02-07","LAUNCH_SITE":"FRENCH GUIANA","OWNER":"SPAIN","ORBIT_TYPE":"Geosynchronous","OPERATIONAL_STATUS":"Operational","satInfo":{"lng":-71.4189383845477,"lat":-1.8577363937695626,"elevation":-10.381405798907387,"azimuth":26.418938384547697,"range":42858.484504330736,"height":35800.90109063016,"velocity":3.0741012842224924},"x":-246,"y":-84,"dx":0.9795501368233793,"dy":-2.9138600232522625,"maxAlt":256,"minAlt":256},{"OBJECT_ID":"2013-026A","OBJECT_NAME":"SES 6","NORAD_CAT_ID":"39172","OBJECT_TYPE":"PAYLOAD","PERIOD":"1436.105","INCLINATION":"0.0596","APOGEE":"35794.980","PERIGEE":"35778.561","ECCENTRICITY":"0.0001947","MEAN_MOTION":"1.00271163","TLE_LINE1":"1 39172U 13026A   16238.19442887 -.00000287  00000-0  00000+0 0  9994","TLE_LINE2":"2 39172   0.0596 295.3400 0001947 213.8298 214.2033  1.00271163 11807","LAUNCH_DATE":"2013-06-03","LAUNCH_SITE":"TYURATAM MISSILE AND SPACE COMPLEX","OWNER":"SOCIÉTÉ EUROPÉENNE DES SATELLITES","ORBIT_TYPE":"Geosynchronous","OPERATIONAL_STATUS":"Operational","satInfo":{"lng":-41.80118234738897,"lat":-1.6131212964903434,"elevation":-10.148673840683323,"azimuth":356.801182347389,"range":42806.02208120778,"height":35774.82406726746,"velocity":3.0753885285451736},"x":-173,"y":-194,"dx":2.2925860369113207,"dy":-2.0498936228171676,"maxAlt":256,"minAlt":256},{"OBJECT_ID":"2013-038A","OBJECT_NAME":"ALPHASAT (I-4A F4)","NORAD_CAT_ID":"39215","OBJECT_TYPE":"PAYLOAD","PERIOD":"1436.058","INCLINATION":"1.4184","APOGEE":"35794.575","PERIGEE":"35777.119","ECCENTRICITY":"0.000207","MEAN_MOTION":"1.00274459","TLE_LINE1":"1 39215U 13038A   16239.09046764  .00000111  00000-0  00000+0 0  9994","TLE_LINE2":"2 39215   1.4184  31.4283 0002070 124.6458 236.1219  1.00274459 11356","LAUNCH_DATE":"2013-07-25","LAUNCH_SITE":"FRENCH GUIANA","OWNER":"INTERNATIONAL MARITIME SATELLITE ORGANIZATION (INMARSAT)","ORBIT_TYPE":"Geosynchronous","OPERATIONAL_STATUS":"Operational","satInfo":{"lng":59.71630187108416,"lat":-2.0957351985057597,"elevation":-10.621238479598668,"azimuth":255.28369812891583,"range":42841.995928864075,"height":35758.00660406249,"velocity":3.075821681129377},"x":221,"y":-131,"dx":1.5510813519863322,"dy":2.6560921771704002,"maxAlt":256,"minAlt":256},{"OBJECT_ID":"2013-038B","OBJECT_NAME":"INSAT 3D","NORAD_CAT_ID":"39216","OBJECT_TYPE":"PAYLOAD","PERIOD":"1436.130","INCLINATION":"0.0771","APOGEE":"35791.145","PERIGEE":"35783.361","ECCENTRICITY":"9.23e-05","MEAN_MOTION":"1.00269442","TLE_LINE1":"1 39216U 13038B   16237.84556791 -.00000180 +00000-0 +00000-0 0  9990","TLE_LINE2":"2 39216 000.0771 275.8793 0000923 323.7727 120.3340 01.00269442011186","LAUNCH_DATE":"2013-07-25","LAUNCH_SITE":"FRENCH GUIANA","OWNER":"INDIA","ORBIT_TYPE":"Geosynchronous","OPERATIONAL_STATUS":"Operational","satInfo":{"lng":68.73468857132569,"lat":0.008306194524996062,"elevation":-8.566967138490968,"azimuth":246.2653114286743,"range":42634.21144407771,"height":35780.38063075378,"velocity":3.0750704335005397},"x":239,"y":-95,"dx":1.1152883480437314,"dy":2.865691901043635,"maxAlt":256,"minAlt":256},{"OBJECT_ID":"2013-044A","OBJECT_NAME":"EUTE 25B","NORAD_CAT_ID":"39233","OBJECT_TYPE":"PAYLOAD","PERIOD":"1436.119","INCLINATION":"0.0521","APOGEE":"35793.449","PERIGEE":"35780.622","ECCENTRICITY":"0.0001521","MEAN_MOTION":"1.00270219","TLE_LINE1":"1 39233U 13044A   16238.99956462  .00000115  00000-0  00000+0 0  9998","TLE_LINE2":"2 39233   0.0521 346.3887 0001521 192.7757 180.8290  1.00270219 10984","LAUNCH_DATE":"2013-08-29","LAUNCH_SITE":"FRENCH GUIANA","OWNER":"EUROPEAN TELECOMMUNICATIONS SATELLITE ORGANIZATION (EUTELSAT)","ORBIT_TYPE":"Geosynchronous","OPERATIONAL_STATUS":"Operational","satInfo":{"lng":59.50141037021483,"lat":-0.6226368765272916,"elevation":-9.187578834433758,"azimuth":255.4985896297852,"range":42679.577402372735,"height":35756.385297185385,"velocity":3.075949517212777},"x":220,"y":-132,"dx":1.5610971426235851,"dy":2.6503662282284677,"maxAlt":256,"minAlt":256},{"OBJECT_ID":"2013-045A","OBJECT_NAME":"AMOS 4","NORAD_CAT_ID":"39237","OBJECT_TYPE":"PAYLOAD","PERIOD":"1436.089","INCLINATION":"0.0516","APOGEE":"35790.670","PERIGEE":"35782.237","ECCENTRICITY":"0.0001","MEAN_MOTION":"1.00272294","TLE_LINE1":"1 39237U 13045A   16238.89011351 -.00000020  00000-0  00000+0 0  9997","TLE_LINE2":"2 39237   0.0516 269.0771 0001000 273.4841 177.4316  1.00272294 10973","LAUNCH_DATE":"2013-08-31","LAUNCH_SITE":"TYURATAM MISSILE AND SPACE COMPLEX","OWNER":"ISRAEL","ORBIT_TYPE":"Geosynchronous","OPERATIONAL_STATUS":"Operational","satInfo":{"lng":85.21116568531605,"lat":0.9063089445883823,"elevation":-7.687741843051124,"azimuth":229.78883431468395,"range":42540.91166070601,"height":35785.67974186259,"velocity":3.0747838267529777},"x":255,"y":-23,"dx":0.25669416832292663,"dy":3.064050209316206,"maxAlt":256,"minAlt":256}]